CCSDS_OEM_VERS = 2.0  
CREATION_DATE  = 2026-03-24T10:47:04
ORIGINATOR     = ESOC/OPS-GFA                            
 
 



META_START
OBJECT_NAME          = LISA                                    
OBJECT_ID            = -1000                                   
CENTER_NAME          = SUN                     
REF_FRAME            = EME2000 
TIME_SYSTEM          = TCB
START_TIME           = 2036-12-23T00:00:30.346418            
STOP_TIME            = 2047-09-06T14:16:03.498131            
INTERPOLATION        = HERMITE                                 
INTERPOLATION_DEGREE = 7                                       
META_STOP

2040-12-17T05:36:17.016229     6.18178666921467781e+07    1.24933417914586961e+08    5.34300037779272124e+07   -2.72238329008906668e+01    1.13281941865619977e+01    4.68282412699409356e+00   -2.46626228499781072e-06   -4.98410269352030416e-06   -2.13154071592670342e-06
2040-12-18T01:53:28.588131     5.98231606198975220e+07    1.25747412174031168e+08    5.37663009971586242e+07   -2.74010602942527974e+01    1.09629736883422790e+01    4.52664826995766933e+00   -2.38709245739467970e-06   -5.01743594269107191e-06   -2.14532453656640001e-06
2040-12-18T22:10:40.160034     5.78157229629561827e+07    1.26534645855528966e+08    5.40911560924002603e+07   -2.75724859976792551e+01    1.05953576662308642e+01    4.36948237900255609e+00   -2.30738341514354689e-06   -5.04970380038065950e-06   -2.15865266285188368e-06
2040-12-19T18:27:51.731936     5.57959788531984389e+07    1.27294946896685258e+08    5.44044979943627492e+07   -2.77380712526058879e+01    1.02254242122004797e+01    4.21135985223796006e+00   -2.22715219259868738e-06   -5.08089850890451008e-06   -2.17152187972251333e-06
2040-12-20T14:45:03.303838     5.37643562075903118e+07    1.28028148947568282e+08    5.47062580765972361e+07   -2.78977785498283986e+01    9.85325197587350665e+00    4.05231431876117476e+00   -2.14641596889110768e-06   -5.11101255459008325e-06   -2.18392907657761758e-06
2040-12-21T11:02:14.875741     5.17212856359468251e+07    1.28734091395071924e+08    5.49963701654016301e+07   -2.80515716398902413e+01    9.47892014672595806e+00    3.89237963104005402e+00   -2.06519206257506882e-06   -5.14003866642634831e-06   -2.19587124667535303e-06
2040-12-22T07:19:26.447643     4.96672003480758592e+07    1.29412619394308135e+08    5.52747705527132824e+07   -2.81994155430187661e+01    9.10250843653939512e+00    3.73158985740323068e+00   -1.98349792461387721e-06   -5.16796981062833230e-06   -2.20734548478636194e-06
2040-12-23T03:36:38.019546     4.76025360604404211e+07    1.30063583912754059e+08    5.55413980144229904e+07   -2.83412765584886657e+01    8.72409706239827187e+00    3.56997927476506671e+00   -1.90135112969753288e-06   -5.19479918111248947e-06   -2.21834898310059440e-06
2040-12-23T23:53:49.591449     4.55277309024730474e+07    1.30686841792877778e+08    5.57961938365450650e+07   -2.84771222732917941e+01    8.34376673052992501e+00    3.40758236171238860e+00   -1.81876936595700747e-06   -5.22052018599579066e-06   -2.22887902543542406e-06
2040-12-24T20:11:01.163350     4.34432253226745650e+07    1.31282255838967755e+08    5.60391018516782820e+07   -2.86069215699922736e+01    7.96159862128461260e+00    3.24443379208001037e+00   -1.73577042291935901e-06   -5.24512642983863803e-06   -2.23893297962547343e-06
2040-12-25T16:28:12.735253     4.13494619946310446e+07    1.31849694933889613e+08    5.62700684881925657e+07   -2.87306446336461541e+01    7.57767437555286882e+00    3.08056842914205298e+00   -1.65237217792067889e-06   -5.26861169201735687e-06   -2.24850828825917699e-06
2040-12-26T12:47:33.082052     3.92431707923677489e+07    1.32389959988985792e+08    5.64894181912657991e+07   -2.88484649510447220e+01    7.19139471753366344e+00    2.91573058898327897e+00   -1.56844477039536944e-06   -5.29100890717534265e-06   -2.25761831522825319e-06
2040-12-27T09:06:53.428851     3.71284847534781545e+07    1.32901905779641017e+08    5.66966843596190885e+07   -2.89601316728548888e+01    6.80351800609099833e+00    2.75024398419634775e+00   -1.48415307408512675e-06   -5.31226978827792171e-06   -2.26624334017533676e-06
2040-12-28T05:26:13.775651     3.50058550235979035e+07    1.33385418542575851e+08    5.68918208428124040e+07   -2.90656188189186580e+01    6.41412756993899880e+00    2.58414417694830600e+00   -1.39951545726270977e-06   -5.33238905946975874e-06   -2.27438120979777555e-06
2040-12-29T01:45:34.122449     3.28757346163514256e+07    1.33840390560753673e+08    5.70747840706758872e+07   -2.91649017563710906e+01    6.02330711663738860e+00    2.41746688389108932e+00   -1.31455038266127617e-06   -5.35136164460464463e-06   -2.28202985615920600e-06
2040-12-29T22:04:54.469249     3.07385783013410345e+07    1.34266720246157885e+08    5.72455330879590735e+07   -2.92579572064859761e+01    5.63114071704858254e+00    2.25024796951997974e+00   -1.22927640556497869e-06   -5.36918269186812003e-06   -2.28918730715236963e-06
2040-12-30T18:24:14.816048     2.85948424978436194e+07    1.34664312194823474e+08    5.74040295772101134e+07   -2.93447632513606713e+01    5.23771278816438013e+00    2.08252343883941382e+00   -1.14371217136067272e-06   -5.38584759382079305e-06   -2.29585169501210803e-06
2040-12-31T14:43:35.162847     2.64449851728476062e+07    1.35033077219903946e+08    5.75502378723366559e+07   -2.94252993404020664e+01    4.84310807463348070e+00    1.91432942947717777e+00   -1.05787641255215923e-06   -5.40135200287266144e-06   -2.30202126288279721e-06
2041-01-01T11:02:55.509646     2.42894657420820482e+07    1.35372932368548244e+08    5.76841249652970880e+07   -2.94995462965743727e+01    4.44741162932451850e+00    1.74570220338949222e+00   -9.71787945232884461e-07   -5.41569184217567160e-06   -2.30769436943493930e-06
2041-01-02T07:22:15.856445     2.21287449726895094e+07    1.35683800928361595e+08    5.78056605083706900e+07   -2.95674863223691666e+01    4.05070879325931799e+00    1.57667813829952008e+00   -8.85465665021632585e-07   -5.42886331194578791e-06   -2.31286949153560169e-06
2041-01-03T03:41:36.203244     1.99632848861945421e+07    1.35965612429224342e+08    5.79148168144555986e+07   -2.96291030054583082e+01    3.65308517525109799e+00    1.40729371901179801e+00   -7.98928542456359938e-07   -5.44086289120440518e-06   -2.31754522496842757e-06
2041-01-04T00:00:56.550043     1.77935486604196243e+07    1.36218302646243304e+08    5.80115688578430116e+07   -2.96843813239902516e+01    3.25462663158230292e+00    1.23758552874512806e+00   -7.12195617851160559e-07   -5.45168733495311603e-06   -2.32172028320916010e-06
2041-01-04T20:20:16.896842     1.56200005290001407e+07    1.36441813609609663e+08    5.80958942779164836e+07   -2.97333076514903141e+01    2.85541924605677000e+00    1.06759024062642638e+00   -6.25285995617512840e-07   -5.46133366678277413e-06   -2.32539349425700474e-06
2041-01-05T16:39:37.243641     1.34431056771504208e+07    1.36636093627137512e+08    5.81677733882249221e+07   -2.97758697613254384e+01    2.45554931076097294e+00    8.97344609488068823e-01   -5.38218838030160757e-07   -5.46979916685272614e-06   -2.32856379549496973e-06
2041-01-06T12:58:57.590441     1.12633301323324181e+07    1.36801097325257361e+08    5.82271891933779866e+07   -2.98120568306939902e+01    2.05510330786900930e+00    7.26885464111230117e-01   -4.51013358481696591e-07   -5.47708135539831794e-06   -2.33123022664547508e-06
2041-01-07T09:18:17.937239     9.08114064847872779e+06    1.36936785714238703e+08    5.82741274162125215e+07   -2.98418594441011891e+01    1.65416789282602572e+00    5.56249700057766638e-01   -3.63688814170561130e-07   -5.48317797154595689e-06   -2.33339192072858882e-06
2041-01-08T05:37:38.284039     6.89700458242226392e+06    1.37043126283415943e+08    5.83085765376787335e+07   -2.98652695962806440e+01    1.25282987924487887e+00    3.85474273233102238e-01   -2.76264498254941960e-07   -5.48808694761858414e-06   -2.33504809309976010e-06
2041-01-09T01:48:14.520157     4.72705145223694295e+06    1.37119645954127222e+08    5.83304149261445329e+07   -2.98821816016166757e+01    8.54054513900680101e-01    2.15820610268181445e-01   -1.89386927079575808e-07   -5.49178460688733471e-06   -2.33619186449834029e-06
2041-01-09T21:58:50.756274     2.55609913625736162e+06    1.37167191376244336e+08    5.83399277394995466e+07   -2.98927808439532221e+01    4.55053178890741261e-01    4.61020006962522544e-02   -1.02449097807367163e-07   -5.49430872138515164e-06   -2.33683630201672211e-06
2041-01-10T18:09:26.992392     3.84606293384359218e+05    1.37185749260188729e+08    5.83371115893211141e+07   -2.98970636360193573e+01    5.59111530827960390e-02   -1.23645273394467403e-01   -1.54700057948542028e-08   -5.49565830573553589e-06   -2.33698107964672734e-06
2041-01-11T14:20:03.228509    -1.78696816934753209e+06    1.37175312456824422e+08    5.83219656995752081e+07   -2.98950276715473606e+01   -3.43286220656829233e-01   -2.93384909467300448e-01    7.15313204971341881e-08   -5.49583258743529586e-06   -2.33662596216499243e-06
2041-01-12T10:30:39.464628    -3.95816522254610620e+06    1.37135880010635436e+08    5.82944919286060706e+07   -2.98866720273843001e+01   -7.42453551786292909e-01   -4.63080591493732818e-01    1.58535827471464566e-07   -5.49483102969945197e-06   -2.33577081474782331e-06
2041-01-13T06:41:15.700746    -6.12852582833721861e+06    1.37067457188200235e+08    5.82546947806826532e+07   -2.98719971650493683e+01   -1.14150541990307808e+00   -6.32695997537483512e-01    2.45524443672152580e-07   -5.49265334979486675e-06   -2.33441561067685315e-06
2041-01-14T02:51:51.936863    -8.29759104497724399e+06    1.36970055487070888e+08    5.82025814092604518e+07   -2.98510049317876316e+01   -1.54035639372679789e+00   -8.02194807828998213e-01    3.32478086373012626e-07   -5.48929953286754946e-06   -2.33256043713774309e-06
